[{"OBJECT_NAME":"FENGYUN 3E","OBJECT_ID":"2021-062A","EPOCH":"2026-03-09T23:36:50.973120","MEAN_MOTION":14.19894265,"ECCENTRICITY":0.00022297,"INCLINATION":98.7518,"RA_OF_ASC_NODE":73.4944,"ARG_OF_PERICENTER":41.3749,"MEAN_ANOMALY":318.7596,"EPHEMERIS_TYPE":0,"CLASSIFICATION_TYPE":"U","NORAD_CAT_ID":49008,"ELEMENT_SET_NO":999,"REV_AT_EPOCH":24250,"BSTAR":7.5486824e-5,"MEAN_MOTION_DOT":1.16e-6,"MEAN_MOTION_DDOT":0},{"OBJECT_NAME":"FENGYUN 1C DEB","OBJECT_ID":"1999-025QZ","EPOCH":"2026-03-09T17:52:55.186752","MEAN_MOTION":14.31863944,"ECCENTRICITY":0.0078661,"INCLINATION":99.1361,"RA_OF_ASC_NODE":157.6068,"ARG_OF_PERICENTER":341.3026,"MEAN_ANOMALY":18.527,"EPHEMERIS_TYPE":0,"CLASSIFICATION_TYPE":"U","NORAD_CAT_ID":30096,"ELEMENT_SET_NO":999,"REV_AT_EPOCH":99791,"BSTAR":0.00028593788,"MEAN_MOTION_DOT":7.43e-6,"MEAN_MOTION_DDOT":0}]
